*******************************************************************************
Ephemeris / WWW_USER Mon Mar 10 07:41:36 2025 Pasadena, USA      / Horizons    
*******************************************************************************
Target body name: (2013 AZ60)                     {source: JPL#49}
Center body name: Earth (399)                     {source: DE441}
Center-site name: Mauna Kea
*******************************************************************************
Start time      : A.D. 2019-Jan-16 04:13:00.0000 UT      
Stop  time      : A.D. 2019-Jan-16 16:49:00.0000 UT      
Step-size       : 1 minutes
*******************************************************************************
Target pole/equ : undefined
Target radii    : undefined                                                    
Center geodetic : 204.5278, 19.8260847, 4.21024   {E-lon(deg),Lat(deg),Alt(km)}
Center cylindric: 204.5278, 6006.35451, 2151.0229 {E-lon(deg),Dxy(km),Dz(km)}
Center pole/equ : ITRF93                          {East-longitude positive}
Center radii    : 6378.137, 6378.137, 6356.752 km {Equator_a, b, pole_c}       
Target primary  : Sun
Vis. interferer : MOON (R_eq= 1737.400) km        {source: DE441}
Rel. light bend : Sun                             {source: DE441}
Rel. lght bnd GM: 1.3271E+11 km^3/s^2                                          
Small-body perts: Yes                             {source: SB441-N16}
Atmos refraction: NO (AIRLESS)
RA format       : HMS
Time format     : CAL 
Calendar mode   : Mixed Julian/Gregorian
RTS-only print  : NO       
EOP file        : eop.250307.p250603                                           
EOP coverage    : DATA-BASED 1962-JAN-20 TO 2025-MAR-07. PREDICTS-> 2025-JUN-02
Units conversion: 1 au= 149597870.700 km, c= 299792.458 km/s, 1 day= 86400.0 s 
Table cut-offs 1: Elevation (-90.0deg=NO ),Airmass (>38.000=NO), Daylight (YES)
Table cut-offs 2: Solar elongation (  0.0,180.0=NO ),Local Hour Angle( 0.0=NO )
Table cut-offs 3: RA/DEC angular rate (     0.0=NO )                           
*******************************************************************************
Initial IAU76/J2000 heliocentric ecliptic osculating elements (au, days, deg.):
  EPOCH=  2457400.5 ! 2016-Jan-13.00 (TDB)         Residual RMS= .1326         
   EC= .9891456016948332   QR= 7.910280980491398   TP= 2456989.3208761909      
   OM= 349.2102750469422   W=  158.2320149266156   IN= 16.53862471305098       
  Equivalent ICRF heliocentric cartesian coordinates (au, au/d):
   X=-8.215502218447208E+00  Y= 1.083611838195559E+00  Z= 3.298265209415168E-01
  VX=-2.822922434188891E-03 VY=-6.008885131743716E-03 VZ=-5.184670886061429E-03
Asteroid physical parameters (km, seconds, rotational period in hours):        
   GM= n.a.                RAD= n.a.               ROTPER= 9.39                
   H= 10.3                 G= .150                 B-V= n.a.                   
                           ALBEDO= n.a.            STYP= n.a.                  
*******************************************************************************
 Date__(UT)__HR:MN     R.A._________(ICRF)_________DEC
******************************************************
$$SOE
 2019-Jan-16 12:25  m  14 19 43.183054 -26 47 27.89092
 2019-Jan-16 12:26  m  14 19 43.190107 -26 47 27.98357
 2019-Jan-16 12:27  m  14 19 43.197160 -26 47 28.07622
 2019-Jan-16 12:28  m  14 19 43.204211 -26 47 28.16886
 2019-Jan-16 12:29  m  14 19 43.211261 -26 47 28.26151
 2019-Jan-16 12:30  m  14 19 43.218310 -26 47 28.35415
 2019-Jan-16 12:31  m  14 19 43.225358 -26 47 28.44678
 2019-Jan-16 12:32  m  14 19 43.232405 -26 47 28.53942
 2019-Jan-16 12:33  m  14 19 43.239451 -26 47 28.63205
 2019-Jan-16 12:34  m  14 19 43.246496 -26 47 28.72468
 2019-Jan-16 12:35  m  14 19 43.253540 -26 47 28.81731
 2019-Jan-16 12:36     14 19 43.260583 -26 47 28.90993
 2019-Jan-16 12:37     14 19 43.267625 -26 47 29.00255
 2019-Jan-16 12:38     14 19 43.274665 -26 47 29.09517
 2019-Jan-16 12:39     14 19 43.281705 -26 47 29.18778
 2019-Jan-16 12:40     14 19 43.288743 -26 47 29.28039
 2019-Jan-16 12:41     14 19 43.295781 -26 47 29.37300
 2019-Jan-16 12:42     14 19 43.302817 -26 47 29.46560
 2019-Jan-16 12:43     14 19 43.309853 -26 47 29.55821
 2019-Jan-16 12:44     14 19 43.316887 -26 47 29.65080
 2019-Jan-16 12:45     14 19 43.323920 -26 47 29.74340
 2019-Jan-16 12:46     14 19 43.330953 -26 47 29.83599
 2019-Jan-16 12:47     14 19 43.337984 -26 47 29.92858
 2019-Jan-16 12:48     14 19 43.345014 -26 47 30.02117
 2019-Jan-16 12:49     14 19 43.352043 -26 47 30.11375
 2019-Jan-16 12:50     14 19 43.359071 -26 47 30.20633
 2019-Jan-16 12:51     14 19 43.366098 -26 47 30.29890
 2019-Jan-16 12:52     14 19 43.373124 -26 47 30.39147
 2019-Jan-16 12:53     14 19 43.380149 -26 47 30.48404
 2019-Jan-16 12:54     14 19 43.387173 -26 47 30.57661
 2019-Jan-16 12:55     14 19 43.394196 -26 47 30.66917
 2019-Jan-16 12:56     14 19 43.401218 -26 47 30.76173
 2019-Jan-16 12:57     14 19 43.408239 -26 47 30.85429
 2019-Jan-16 12:58     14 19 43.415259 -26 47 30.94684
 2019-Jan-16 12:59     14 19 43.422278 -26 47 31.03938
 2019-Jan-16 13:00     14 19 43.429296 -26 47 31.13193
 2019-Jan-16 13:01     14 19 43.436312 -26 47 31.22447
 2019-Jan-16 13:02     14 19 43.443328 -26 47 31.31701
 2019-Jan-16 13:03     14 19 43.450343 -26 47 31.40954
 2019-Jan-16 13:04     14 19 43.457357 -26 47 31.50207
 2019-Jan-16 13:05     14 19 43.464370 -26 47 31.59460
 2019-Jan-16 13:06     14 19 43.471382 -26 47 31.68712
 2019-Jan-16 13:07     14 19 43.478392 -26 47 31.77964
 2019-Jan-16 13:08     14 19 43.485402 -26 47 31.87216
 2019-Jan-16 13:09     14 19 43.492411 -26 47 31.96467
 2019-Jan-16 13:10     14 19 43.499419 -26 47 32.05718
 2019-Jan-16 13:11     14 19 43.506426 -26 47 32.14968
 2019-Jan-16 13:12     14 19 43.513432 -26 47 32.24218
 2019-Jan-16 13:13     14 19 43.520436 -26 47 32.33468
 2019-Jan-16 13:14     14 19 43.527440 -26 47 32.42717
 2019-Jan-16 13:15     14 19 43.534443 -26 47 32.51966
 2019-Jan-16 13:16     14 19 43.541445 -26 47 32.61214
 2019-Jan-16 13:17     14 19 43.548446 -26 47 32.70462
 2019-Jan-16 13:18     14 19 43.555446 -26 47 32.79710
 2019-Jan-16 13:19     14 19 43.562445 -26 47 32.88957
 2019-Jan-16 13:20     14 19 43.569443 -26 47 32.98204
 2019-Jan-16 13:21     14 19 43.576440 -26 47 33.07451
 2019-Jan-16 13:22     14 19 43.583436 -26 47 33.16697
 2019-Jan-16 13:23     14 19 43.590431 -26 47 33.25943
 2019-Jan-16 13:24     14 19 43.597426 -26 47 33.35188
 2019-Jan-16 13:25     14 19 43.604419 -26 47 33.44433
 2019-Jan-16 13:26     14 19 43.611411 -26 47 33.53677
 2019-Jan-16 13:27     14 19 43.618402 -26 47 33.62922
 2019-Jan-16 13:28     14 19 43.625393 -26 47 33.72165
 2019-Jan-16 13:29     14 19 43.632382 -26 47 33.81408
 2019-Jan-16 13:30     14 19 43.639371 -26 47 33.90651
 2019-Jan-16 13:31     14 19 43.646358 -26 47 33.99894
 2019-Jan-16 13:32     14 19 43.653345 -26 47 34.09136
 2019-Jan-16 13:33     14 19 43.660330 -26 47 34.18377
 2019-Jan-16 13:34     14 19 43.667315 -26 47 34.27618
 2019-Jan-16 13:35     14 19 43.674299 -26 47 34.36859
 2019-Jan-16 13:36     14 19 43.681282 -26 47 34.46099
 2019-Jan-16 13:37     14 19 43.688264 -26 47 34.55339
 2019-Jan-16 13:38     14 19 43.695245 -26 47 34.64579
 2019-Jan-16 13:39     14 19 43.702225 -26 47 34.73817
 2019-Jan-16 13:40     14 19 43.709204 -26 47 34.83056
 2019-Jan-16 13:41     14 19 43.716182 -26 47 34.92294
 2019-Jan-16 13:42     14 19 43.723160 -26 47 35.01532
 2019-Jan-16 13:43     14 19 43.730136 -26 47 35.10769
 2019-Jan-16 13:44     14 19 43.737112 -26 47 35.20006
 2019-Jan-16 13:45     14 19 43.744086 -26 47 35.29242
 2019-Jan-16 13:46     14 19 43.751060 -26 47 35.38478
 2019-Jan-16 13:47     14 19 43.758033 -26 47 35.47713
 2019-Jan-16 13:48     14 19 43.765005 -26 47 35.56948
 2019-Jan-16 13:49     14 19 43.771976 -26 47 35.66183
 2019-Jan-16 13:50     14 19 43.778946 -26 47 35.75417
 2019-Jan-16 13:51     14 19 43.785915 -26 47 35.84650
 2019-Jan-16 13:52     14 19 43.792884 -26 47 35.93883
 2019-Jan-16 13:53     14 19 43.799851 -26 47 36.03116
 2019-Jan-16 13:54     14 19 43.806818 -26 47 36.12348
 2019-Jan-16 13:55     14 19 43.813784 -26 47 36.21580
 2019-Jan-16 13:56     14 19 43.820749 -26 47 36.30811
 2019-Jan-16 13:57     14 19 43.827713 -26 47 36.40042
 2019-Jan-16 13:58     14 19 43.834676 -26 47 36.49272
 2019-Jan-16 13:59     14 19 43.841638 -26 47 36.58502
 2019-Jan-16 14:00     14 19 43.848600 -26 47 36.67731
 2019-Jan-16 14:01     14 19 43.855560 -26 47 36.76960
 2019-Jan-16 14:02     14 19 43.862520 -26 47 36.86189
 2019-Jan-16 14:03     14 19 43.869479 -26 47 36.95416
 2019-Jan-16 14:04     14 19 43.876437 -26 47 37.04644
 2019-Jan-16 14:05     14 19 43.883394 -26 47 37.13871
 2019-Jan-16 14:06     14 19 43.890351 -26 47 37.23097
 2019-Jan-16 14:07     14 19 43.897306 -26 47 37.32323
 2019-Jan-16 14:08     14 19 43.904261 -26 47 37.41549
 2019-Jan-16 14:09     14 19 43.911215 -26 47 37.50774
 2019-Jan-16 14:10     14 19 43.918168 -26 47 37.59998
 2019-Jan-16 14:11     14 19 43.925120 -26 47 37.69222
 2019-Jan-16 14:12     14 19 43.932071 -26 47 37.78445
 2019-Jan-16 14:13     14 19 43.939022 -26 47 37.87668
 2019-Jan-16 14:14     14 19 43.945971 -26 47 37.96891
 2019-Jan-16 14:15     14 19 43.952920 -26 47 38.06113
 2019-Jan-16 14:16     14 19 43.959869 -26 47 38.15334
 2019-Jan-16 14:17     14 19 43.966816 -26 47 38.24555
 2019-Jan-16 14:18     14 19 43.973762 -26 47 38.33776
 2019-Jan-16 14:19     14 19 43.980708 -26 47 38.42996
 2019-Jan-16 14:20     14 19 43.987653 -26 47 38.52215
 2019-Jan-16 14:21     14 19 43.994597 -26 47 38.61434
 2019-Jan-16 14:22     14 19 44.001540 -26 47 38.70652
 2019-Jan-16 14:23     14 19 44.008483 -26 47 38.79870
 2019-Jan-16 14:24     14 19 44.015425 -26 47 38.89087
 2019-Jan-16 14:25     14 19 44.022366 -26 47 38.98304
 2019-Jan-16 14:26     14 19 44.029306 -26 47 39.07521
 2019-Jan-16 14:27     14 19 44.036245 -26 47 39.16736
